{"type":"FeatureCollection","features":[{"type":"Feature","properties":{"id":"sametham-HS-19025","name":"S. M. M. H. S.S Rayirimangalam","category":"school","subtype":"High / Higher Secondary School","sametham_code":"HS:19025","management":"Aided","class_range":"8 - 12","students_2026_27":2257,"teachers":70,"operator_type":"private","phone":"04942083724","local_body":"Tanur","local_body_id":"tanur","ward_no":8,"ward_name":"Kunnumpuram South","position_confidence":"locality-level (geocoded, not the surveyed building)","notes":"","source":"Sametham — Kerala School Data Bank, KITE (Govt. of Kerala); position geocoded via OSM Nominatim","source_date":"2026-09-11","license":"Sametham: official public data; geocoding: OpenStreetMap Nominatim, ODbL 1.0","verified":false},"geometry":{"type":"Point","coordinates":[75.8772006,10.9952003]}},{"type":"Feature","properties":{"id":"sametham-LP-19601","name":"A. M. L. P. S. Adrisseri","category":"school","subtype":"LP School","sametham_code":"LP:19601","management":"Aided","class_range":"1 - 4","students_2026_27":297,"teachers":9,"operator_type":"private","phone":"04942495266","local_body":"Ponmundam","local_body_id":"ponmundam","ward_no":2,"ward_name":"Karyathara","position_confidence":"locality-level (geocoded, not the surveyed building)","notes":"","source":"Sametham — Kerala School Data Bank, KITE (Govt. of Kerala); position geocoded via OSM Nominatim","source_date":"2026-09-11","license":"Sametham: official public data; geocoding: OpenStreetMap Nominatim, ODbL 1.0","verified":false},"geometry":{"type":"Point","coordinates":[75.9517598,10.9734525]}},{"type":"Feature","properties":{"id":"sametham-LP-19603","name":"Al Ameen E. M. L. P. S. Vailathur","category":"school","subtype":"LP School","sametham_code":"LP:19603","management":"Unaided Recognised","class_range":"1 - 4","students_2026_27":233,"teachers":null,"operator_type":"private","phone":"04942585355","local_body":"Ponmundam","local_body_id":"ponmundam","ward_no":11,"ward_name":"Nottappuram","position_confidence":"locality-level (geocoded, not the surveyed building)","notes":"","source":"Sametham — Kerala School Data Bank, KITE (Govt. of Kerala); position geocoded via OSM Nominatim","source_date":"2026-09-11","license":"Sametham: official public data; geocoding: OpenStreetMap Nominatim, ODbL 1.0","verified":false},"geometry":{"type":"Point","coordinates":[75.9497717,10.9544548]}},{"type":"Feature","properties":{"id":"sametham-LP-19606","name":"A. M. L. P. S. Ayyaya","category":"school","subtype":"LP School","sametham_code":"LP:19606","management":"Aided","class_range":"1 - 4","students_2026_27":170,"teachers":9,"operator_type":"private","phone":"9745287744","local_body":"Ozhur","local_body_id":"ozhur","ward_no":13,"ward_name":"Vellachal","position_confidence":"locality-level (geocoded, not the surveyed building)","notes":"","source":"Sametham — Kerala School Data Bank, KITE (Govt. of Kerala); position geocoded via OSM Nominatim","source_date":"2026-09-11","license":"Sametham: official public data; geocoding: OpenStreetMap Nominatim, ODbL 1.0","verified":false},"geometry":{"type":"Point","coordinates":[75.9224959,10.9680506]}},{"type":"Feature","properties":{"id":"sametham-LP-19614","name":"A. M. L. P. S. Chilavil West","category":"school","subtype":"LP School","sametham_code":"LP:19614","management":"Aided","class_range":"1 - 4","students_2026_27":153,"teachers":9,"operator_type":"private","phone":"7736880430","local_body":"Ponmundam","local_body_id":"ponmundam","ward_no":16,"ward_name":"Chilavil","position_confidence":"locality-level (geocoded, not the surveyed building)","notes":"","source":"Sametham — Kerala School Data Bank, KITE (Govt. of Kerala); position geocoded via OSM Nominatim","source_date":"2026-09-11","license":"Sametham: official public data; geocoding: OpenStreetMap Nominatim, ODbL 1.0","verified":false},"geometry":{"type":"Point","coordinates":[75.9341556,10.9675383]}},{"type":"Feature","properties":{"id":"sametham-LP-19636","name":"A. M. L. P. S. Kormanthala","category":"school","subtype":"LP School","sametham_code":"LP:19636","management":"Government","class_range":"1 - 4","students_2026_27":132,"teachers":9,"operator_type":"government","phone":"9495070849","local_body":"Tanur","local_body_id":"tanur","ward_no":45,"ward_name":"Companippadi","position_confidence":"locality-level (geocoded, not the surveyed building)","notes":"","source":"Sametham — Kerala School Data Bank, KITE (Govt. of Kerala); position geocoded via OSM Nominatim","source_date":"2026-09-11","license":"Sametham: official public data; geocoding: OpenStreetMap Nominatim, ODbL 1.0","verified":false},"geometry":{"type":"Point","coordinates":[75.8634596,10.9996436]}},{"type":"Feature","properties":{"id":"sametham-LP-19643","name":"N. M. A. L. P. S. K.Puram","category":"school","subtype":"LP School","sametham_code":"LP:19643","management":"Aided","class_range":"1 - 4","students_2026_27":245,"teachers":9,"operator_type":"private","phone":"9354513109","local_body":"Thanaloor","local_body_id":"tanalur","ward_no":22,"ward_name":"Thadipadi","position_confidence":"locality-level (geocoded, not the surveyed building)","notes":"","source":"Sametham — Kerala School Data Bank, KITE (Govt. of Kerala); position geocoded via OSM Nominatim","source_date":"2026-09-11","license":"Sametham: official public data; geocoding: OpenStreetMap Nominatim, ODbL 1.0","verified":false},"geometry":{"type":"Point","coordinates":[75.8858181,10.9488017]}},{"type":"Feature","properties":{"id":"sametham-LP-19655","name":"A. M. L. P. S. Tanalur","category":"school","subtype":"LP School","sametham_code":"LP:19655","management":"Aided","class_range":"1 - 4","students_2026_27":332,"teachers":9,"operator_type":"private","phone":"8089816070","local_body":"Thanaloor","local_body_id":"tanalur","ward_no":6,"ward_name":"Tharayil","position_confidence":"locality-level (geocoded, not the surveyed building)","notes":"","source":"Sametham — Kerala School Data Bank, KITE (Govt. of Kerala); position geocoded via OSM Nominatim","source_date":"2026-09-11","license":"Sametham: official public data; geocoding: OpenStreetMap Nominatim, ODbL 1.0","verified":false},"geometry":{"type":"Point","coordinates":[75.9146033,10.9530828]}},{"type":"Feature","properties":{"id":"sametham-UP-19666","name":"A. M. U. P. S. Areekad","category":"school","subtype":"UP School","sametham_code":"UP:19666","management":"Aided","class_range":"1 - 7","students_2026_27":1542,"teachers":31,"operator_type":"private","phone":"9745125072","local_body":"Thanaloor","local_body_id":"tanalur","ward_no":9,"ward_name":"Thavalam Kunnu","position_confidence":"locality-level (geocoded, not the surveyed building)","notes":"","source":"Sametham — Kerala School Data Bank, KITE (Govt. of Kerala); position geocoded via OSM Nominatim","source_date":"2026-09-11","license":"Sametham: official public data; geocoding: OpenStreetMap Nominatim, ODbL 1.0","verified":false},"geometry":{"type":"Point","coordinates":[75.9341129,10.9470147]}},{"type":"Feature","properties":{"id":"sametham-UP-19686","name":"K. P. N. M. U. P. S. Tanur","category":"school","subtype":"UP School","sametham_code":"UP:19686","management":"Government","class_range":"5 -7","students_2026_27":127,"teachers":9,"operator_type":"government","phone":"04942444786","local_body":"Tanur","local_body_id":"tanur","ward_no":41,"ward_name":"Chirakkal","position_confidence":"locality-level (geocoded, not the surveyed building)","notes":"","source":"Sametham — Kerala School Data Bank, KITE (Govt. of Kerala); position geocoded via OSM Nominatim","source_date":"2026-09-11","license":"Sametham: official public data; geocoding: OpenStreetMap Nominatim, ODbL 1.0","verified":false},"geometry":{"type":"Point","coordinates":[75.8728242,10.9936026]}},{"type":"Feature","properties":{"id":"sametham-HS-50060","name":"Pleasant E M School Tanur","category":"school","subtype":"High / Higher Secondary School","sametham_code":"HS:50060","management":"Unaided Recognised","class_range":"1 -10","students_2026_27":446,"teachers":null,"operator_type":"private","phone":"9142934925","local_body":"Tanur","local_body_id":"tanur","ward_no":13,"ward_name":"Chancheri Parambu","position_confidence":"locality-level (geocoded, not the surveyed building)","notes":"","source":"Sametham — Kerala School Data Bank, KITE (Govt. of Kerala); position geocoded via OSM Nominatim","source_date":"2026-09-11","license":"Sametham: official public data; geocoding: OpenStreetMap Nominatim, ODbL 1.0","verified":false},"geometry":{"type":"Point","coordinates":[75.885249,10.9838279]}},{"type":"Feature","properties":{"id":"sametham-HS-50061","name":"ICH School Tanur","category":"school","subtype":"High / Higher Secondary School","sametham_code":"HS:50061","management":"Unaided Recognised","class_range":"1 -10","students_2026_27":701,"teachers":null,"operator_type":"private","phone":"04942442786","local_body":"Tanur","local_body_id":"tanur","ward_no":23,"ward_name":"Tanur","position_confidence":"locality-level (geocoded, not the surveyed building)","notes":"","source":"Sametham — Kerala School Data Bank, KITE (Govt. of Kerala); position geocoded via OSM Nominatim","source_date":"2026-09-11","license":"Sametham: official public data; geocoding: OpenStreetMap Nominatim, ODbL 1.0","verified":false},"geometry":{"type":"Point","coordinates":[75.8741163,10.977392]}}]}