{"type":"FeatureCollection","features":[{"type":"Feature","properties":{"id":"osm-w203650273","osm_id":203650273,"name":"Chamravattam - Tirur - Kadalundi- Kozhikkode Road","named":true,"road":"","structure":"yes","layer":"1","local_body":"Thanaloor","local_body_id":"tanalur","ward_no":15,"ward_name":"Moochikkal","notes":"","source":"OpenStreetMap (Overpass API) — seed only, incomplete","license":"ODbL 1.0","source_date":"2026-09-09","verified":false},"geometry":{"type":"Point","coordinates":[75.906487,10.941463]}},{"type":"Feature","properties":{"id":"osm-w623990813","osm_id":623990813,"name":"Tippu Sulthan Road","named":true,"road":"","structure":"yes","layer":"1","local_body":"Tanur","local_body_id":"tanur","ward_no":1,"ward_name":"Ottumpuram","notes":"","source":"OpenStreetMap (Overpass API) — seed only, incomplete","license":"ODbL 1.0","source_date":"2026-09-09","verified":false},"geometry":{"type":"Point","coordinates":[75.858359,11.018751]}},{"type":"Feature","properties":{"id":"osm-w753323829","osm_id":753323829,"name":"Tirur - Malappuram - Manjeri Road","named":true,"road":"","structure":"yes","layer":"1","local_body":"Cheriyamundam","local_body_id":"cheriyamundam","ward_no":19,"ward_name":"Ipputungal","notes":"","source":"OpenStreetMap (Overpass API) — seed only, incomplete","license":"ODbL 1.0","source_date":"2026-09-09","verified":false},"geometry":{"type":"Point","coordinates":[75.934364,10.932978]}},{"type":"Feature","properties":{"id":"osm-w1225374911","osm_id":1225374911,"name":"Vellachal - Ozhur- Puthentheru Road","named":true,"road":"","structure":"yes","layer":"1","local_body":"Ozhur","local_body_id":"ozhur","ward_no":14,"ward_name":"Illathepadi","notes":"","source":"OpenStreetMap (Overpass API) — seed only, incomplete","license":"ODbL 1.0","source_date":"2026-09-09","verified":false},"geometry":{"type":"Point","coordinates":[75.916169,10.965071]}},{"type":"Feature","properties":{"id":"osm-w1293633728","osm_id":1293633728,"name":"Tirur Chamravattam - Kadalundi - Kozhikkode Road","named":true,"road":"","structure":"yes","layer":"1","local_body":"Thanaloor","local_body_id":"tanalur","ward_no":15,"ward_name":"Moochikkal","notes":"","source":"OpenStreetMap (Overpass API) — seed only, incomplete","license":"ODbL 1.0","source_date":"2026-09-09","verified":false},"geometry":{"type":"Point","coordinates":[75.906546,10.938979]}},{"type":"Feature","properties":{"id":"osm-w678714970","osm_id":678714970,"name":"Unnamed Bridge","named":false,"road":"","structure":"yes","layer":"1","local_body":"Tanur","local_body_id":"tanur","ward_no":37,"ward_name":"C.H.C","notes":"","source":"OpenStreetMap (Overpass API) — seed only, incomplete","license":"ODbL 1.0","source_date":"2026-09-09","verified":false},"geometry":{"type":"Point","coordinates":[75.870573,10.983617]}},{"type":"Feature","properties":{"id":"osm-w678714973","osm_id":678714973,"name":"Unnamed Bridge","named":false,"road":"","structure":"yes","layer":"1","local_body":"Tanur","local_body_id":"tanur","ward_no":34,"ward_name":"Tanur Central","notes":"","source":"OpenStreetMap (Overpass API) — seed only, incomplete","license":"ODbL 1.0","source_date":"2026-09-09","verified":false},"geometry":{"type":"Point","coordinates":[75.872137,10.977525]}},{"type":"Feature","properties":{"id":"osm-w678714975","osm_id":678714975,"name":"Unnamed Bridge","named":false,"road":"","structure":"yes","layer":"1","local_body":"Niramaruthoor","local_body_id":"niramaruthoor","ward_no":17,"ward_name":"Pancharamoola","notes":"","source":"OpenStreetMap (Overpass API) — seed only, incomplete","license":"ODbL 1.0","source_date":"2026-09-09","verified":false},"geometry":{"type":"Point","coordinates":[75.887909,10.919544]}},{"type":"Feature","properties":{"id":"osm-w678729237","osm_id":678729237,"name":"Unnamed Bridge","named":false,"road":"","structure":"yes","layer":"1","local_body":"Niramaruthoor","local_body_id":"niramaruthoor","ward_no":1,"ward_name":"Pudiyakadappuram","notes":"","source":"OpenStreetMap (Overpass API) — seed only, incomplete","license":"ODbL 1.0","source_date":"2026-09-09","verified":false},"geometry":{"type":"Point","coordinates":[75.88263,10.939046]}},{"type":"Feature","properties":{"id":"osm-w678729240","osm_id":678729240,"name":"Unnamed Bridge","named":false,"road":"","structure":"yes","layer":"1","local_body":"Niramaruthoor","local_body_id":"niramaruthoor","ward_no":2,"ward_name":"Kalad","notes":"","source":"OpenStreetMap (Overpass API) — seed only, incomplete","license":"ODbL 1.0","source_date":"2026-09-09","verified":false},"geometry":{"type":"Point","coordinates":[75.888462,10.942484]}},{"type":"Feature","properties":{"id":"osm-w678729244","osm_id":678729244,"name":"Unnamed Bridge","named":false,"road":"","structure":"yes","layer":"1","local_body":"Thanaloor","local_body_id":"tanalur","ward_no":22,"ward_name":"Thadipadi","notes":"","source":"OpenStreetMap (Overpass API) — seed only, incomplete","license":"ODbL 1.0","source_date":"2026-09-09","verified":false},"geometry":{"type":"Point","coordinates":[75.879078,10.953502]}},{"type":"Feature","properties":{"id":"osm-w678729249","osm_id":678729249,"name":"Unnamed Bridge","named":false,"road":"","structure":"yes","layer":"1","local_body":"Thanaloor","local_body_id":"tanalur","ward_no":23,"ward_name":"Kundungal","notes":"","source":"OpenStreetMap (Overpass API) — seed only, incomplete","license":"ODbL 1.0","source_date":"2026-09-09","verified":false},"geometry":{"type":"Point","coordinates":[75.876813,10.96106]}},{"type":"Feature","properties":{"id":"osm-w678729262","osm_id":678729262,"name":"Unnamed Bridge","named":false,"road":"","structure":"yes","layer":"1","local_body":"Thanaloor","local_body_id":"tanalur","ward_no":1,"ward_name":"Moolakkal","notes":"","source":"OpenStreetMap (Overpass API) — seed only, incomplete","license":"ODbL 1.0","source_date":"2026-09-09","verified":false},"geometry":{"type":"Point","coordinates":[75.882634,10.9698]}},{"type":"Feature","properties":{"id":"osm-w678729273","osm_id":678729273,"name":"Unnamed Bridge","named":false,"road":"","structure":"yes","layer":"1","local_body":"Tanur","local_body_id":"tanur","ward_no":30,"ward_name":"Edakkadappuram North","notes":"","source":"OpenStreetMap (Overpass API) — seed only, incomplete","license":"ODbL 1.0","source_date":"2026-09-09","verified":false},"geometry":{"type":"Point","coordinates":[75.874147,10.971134]}},{"type":"Feature","properties":{"id":"osm-w678729278","osm_id":678729278,"name":"Unnamed Bridge","named":false,"road":"","structure":"yes","layer":"1","local_body":"Tanur","local_body_id":"tanur","ward_no":43,"ward_name":"Mukkola","notes":"","source":"OpenStreetMap (Overpass API) — seed only, incomplete","license":"ODbL 1.0","source_date":"2026-09-09","verified":false},"geometry":{"type":"Point","coordinates":[75.867603,10.993815]}},{"type":"Feature","properties":{"id":"osm-w744462806","osm_id":744462806,"name":"Unnamed Bridge","named":false,"road":"","structure":"yes","layer":"1","local_body":"Tanur","local_body_id":"tanur","ward_no":40,"ward_name":"Albazar","notes":"","source":"OpenStreetMap (Overpass API) — seed only, incomplete","license":"ODbL 1.0","source_date":"2026-09-09","verified":false},"geometry":{"type":"Point","coordinates":[75.869251,10.989596]}},{"type":"Feature","properties":{"id":"osm-w751344445","osm_id":751344445,"name":"Unnamed Bridge","named":false,"road":"","structure":"yes","layer":"1","local_body":"Niramaruthoor","local_body_id":"niramaruthoor","ward_no":17,"ward_name":"Pancharamoola","notes":"","source":"OpenStreetMap (Overpass API) — seed only, incomplete","license":"ODbL 1.0","source_date":"2026-09-09","verified":false},"geometry":{"type":"Point","coordinates":[75.891215,10.909048]}},{"type":"Feature","properties":{"id":"osm-w753323845","osm_id":753323845,"name":"Unnamed Bridge","named":false,"road":"","structure":"yes","layer":"1","local_body":"Thanaloor","local_body_id":"tanalur","ward_no":19,"ward_name":"Kampanipadi","notes":"","source":"OpenStreetMap (Overpass API) — seed only, incomplete","license":"ODbL 1.0","source_date":"2026-09-09","verified":false},"geometry":{"type":"Point","coordinates":[75.898794,10.95241]}},{"type":"Feature","properties":{"id":"osm-w753323846","osm_id":753323846,"name":"Unnamed Bridge","named":false,"road":"","structure":"yes","layer":"1","local_body":"Thanaloor","local_body_id":"tanalur","ward_no":3,"ward_name":"Puthantheru","notes":"","source":"OpenStreetMap (Overpass API) — seed only, incomplete","license":"ODbL 1.0","source_date":"2026-09-09","verified":false},"geometry":{"type":"Point","coordinates":[75.891102,10.963847]}},{"type":"Feature","properties":{"id":"osm-w821737368","osm_id":821737368,"name":"Unnamed Bridge","named":false,"road":"","structure":"yes","layer":"","local_body":"Niramaruthoor","local_body_id":"niramaruthoor","ward_no":19,"ward_name":"Unniyal","notes":"","source":"OpenStreetMap (Overpass API) — seed only, incomplete","license":"ODbL 1.0","source_date":"2026-09-09","verified":false},"geometry":{"type":"Point","coordinates":[75.884128,10.930825]}},{"type":"Feature","properties":{"id":"osm-w823521373","osm_id":823521373,"name":"Unnamed Bridge","named":false,"road":"","structure":"yes","layer":"","local_body":"Tanur","local_body_id":"tanur","ward_no":43,"ward_name":"Mukkola","notes":"","source":"OpenStreetMap (Overpass API) — seed only, incomplete","license":"ODbL 1.0","source_date":"2026-09-09","verified":false},"geometry":{"type":"Point","coordinates":[75.866081,11.000558]}},{"type":"Feature","properties":{"id":"osm-w823777529","osm_id":823777529,"name":"Unnamed Bridge","named":false,"road":"","structure":"yes","layer":"","local_body":"Tanur","local_body_id":"tanur","ward_no":43,"ward_name":"Mukkola","notes":"","source":"OpenStreetMap (Overpass API) — seed only, incomplete","license":"ODbL 1.0","source_date":"2026-09-09","verified":false},"geometry":{"type":"Point","coordinates":[75.864986,11.003788]}},{"type":"Feature","properties":{"id":"osm-w856370722","osm_id":856370722,"name":"Unnamed Bridge","named":false,"road":"","structure":"yes","layer":"1","local_body":"Niramaruthoor","local_body_id":"niramaruthoor","ward_no":7,"ward_name":"Korangath","notes":"","source":"OpenStreetMap (Overpass API) — seed only, incomplete","license":"ODbL 1.0","source_date":"2026-09-09","verified":false},"geometry":{"type":"Point","coordinates":[75.891745,10.942716]}},{"type":"Feature","properties":{"id":"osm-w902364197","osm_id":902364197,"name":"Unnamed Bridge","named":false,"road":"","structure":"yes","layer":"1","local_body":"Tanur","local_body_id":"tanur","ward_no":24,"ward_name":"Karad","notes":"","source":"OpenStreetMap (Overpass API) — seed only, incomplete","license":"ODbL 1.0","source_date":"2026-09-09","verified":false},"geometry":{"type":"Point","coordinates":[75.880577,10.969109]}},{"type":"Feature","properties":{"id":"osm-w903841327","osm_id":903841327,"name":"Unnamed Bridge","named":false,"road":"","structure":"yes","layer":"1","local_body":"Thanaloor","local_body_id":"tanalur","ward_no":3,"ward_name":"Puthantheru","notes":"","source":"OpenStreetMap (Overpass API) — seed only, incomplete","license":"ODbL 1.0","source_date":"2026-09-09","verified":false},"geometry":{"type":"Point","coordinates":[75.889216,10.963648]}},{"type":"Feature","properties":{"id":"osm-w903841328","osm_id":903841328,"name":"Unnamed Bridge","named":false,"road":"","structure":"yes","layer":"1","local_body":"Thanaloor","local_body_id":"tanalur","ward_no":3,"ward_name":"Puthantheru","notes":"","source":"OpenStreetMap (Overpass API) — seed only, incomplete","license":"ODbL 1.0","source_date":"2026-09-09","verified":false},"geometry":{"type":"Point","coordinates":[75.891588,10.963066]}},{"type":"Feature","properties":{"id":"osm-w961610045","osm_id":961610045,"name":"Unnamed Bridge","named":false,"road":"","structure":"yes","layer":"1","local_body":"Cheriyamundam","local_body_id":"cheriyamundam","ward_no":7,"ward_name":"Iringavoor North","notes":"","source":"OpenStreetMap (Overpass API) — seed only, incomplete","license":"ODbL 1.0","source_date":"2026-09-09","verified":false},"geometry":{"type":"Point","coordinates":[75.953733,10.923427]}},{"type":"Feature","properties":{"id":"osm-w961610047","osm_id":961610047,"name":"Unnamed Bridge","named":false,"road":"","structure":"yes","layer":"1","local_body":"Cheriyamundam","local_body_id":"cheriyamundam","ward_no":7,"ward_name":"Iringavoor North","notes":"","source":"OpenStreetMap (Overpass API) — seed only, incomplete","license":"ODbL 1.0","source_date":"2026-09-09","verified":false},"geometry":{"type":"Point","coordinates":[75.953932,10.924771]}},{"type":"Feature","properties":{"id":"osm-w962619545","osm_id":962619545,"name":"Unnamed Bridge","named":false,"road":"","structure":"yes","layer":"1","local_body":"Tanur","local_body_id":"tanur","ward_no":34,"ward_name":"Tanur Central","notes":"","source":"OpenStreetMap (Overpass API) — seed only, incomplete","license":"ODbL 1.0","source_date":"2026-09-09","verified":false},"geometry":{"type":"Point","coordinates":[75.880102,10.980944]}},{"type":"Feature","properties":{"id":"osm-w963896020","osm_id":963896020,"name":"Unnamed Bridge","named":false,"road":"","structure":"yes","layer":"1","local_body":"Cheriyamundam","local_body_id":"cheriyamundam","ward_no":1,"ward_name":"Ovungal","notes":"","source":"OpenStreetMap (Overpass API) — seed only, incomplete","license":"ODbL 1.0","source_date":"2026-09-09","verified":false},"geometry":{"type":"Point","coordinates":[75.93326,10.944177]}},{"type":"Feature","properties":{"id":"osm-w1212981157","osm_id":1212981157,"name":"Unnamed Bridge","named":false,"road":"","structure":"yes","layer":"1","local_body":"Thanaloor","local_body_id":"tanalur","ward_no":12,"ward_name":"Pakara South","notes":"","source":"OpenStreetMap (Overpass API) — seed only, incomplete","license":"ODbL 1.0","source_date":"2026-09-09","verified":false},"geometry":{"type":"Point","coordinates":[75.915162,10.952404]}},{"type":"Feature","properties":{"id":"osm-w1225364249","osm_id":1225364249,"name":"Unnamed Bridge","named":false,"road":"","structure":"yes","layer":"1","local_body":"Tanur","local_body_id":"tanur","ward_no":43,"ward_name":"Mukkola","notes":"","source":"OpenStreetMap (Overpass API) — seed only, incomplete","license":"ODbL 1.0","source_date":"2026-09-09","verified":false},"geometry":{"type":"Point","coordinates":[75.872911,11.003203]}},{"type":"Feature","properties":{"id":"osm-w1242443590","osm_id":1242443590,"name":"Unnamed Bridge","named":false,"road":"","structure":"yes","layer":"1","local_body":"Tanur","local_body_id":"tanur","ward_no":2,"ward_name":"Pariyapuram","notes":"","source":"OpenStreetMap (Overpass API) — seed only, incomplete","license":"ODbL 1.0","source_date":"2026-09-09","verified":false},"geometry":{"type":"Point","coordinates":[75.868467,11.01686]}},{"type":"Feature","properties":{"id":"osm-w1242443596","osm_id":1242443596,"name":"Unnamed Bridge","named":false,"road":"","structure":"yes","layer":"1","local_body":"Tanur","local_body_id":"tanur","ward_no":43,"ward_name":"Mukkola","notes":"","source":"OpenStreetMap (Overpass API) — seed only, incomplete","license":"ODbL 1.0","source_date":"2026-09-09","verified":false},"geometry":{"type":"Point","coordinates":[75.872607,11.003902]}},{"type":"Feature","properties":{"id":"osm-w1290232833","osm_id":1290232833,"name":"Unnamed Bridge","named":false,"road":"","structure":"yes","layer":"1","local_body":"Thanaloor","local_body_id":"tanalur","ward_no":3,"ward_name":"Puthantheru","notes":"","source":"OpenStreetMap (Overpass API) — seed only, incomplete","license":"ODbL 1.0","source_date":"2026-09-09","verified":false},"geometry":{"type":"Point","coordinates":[75.892105,10.962957]}},{"type":"Feature","properties":{"id":"osm-w1290232834","osm_id":1290232834,"name":"Unnamed Bridge","named":false,"road":"","structure":"yes","layer":"1","local_body":"Thanaloor","local_body_id":"tanalur","ward_no":3,"ward_name":"Puthantheru","notes":"","source":"OpenStreetMap (Overpass API) — seed only, incomplete","license":"ODbL 1.0","source_date":"2026-09-09","verified":false},"geometry":{"type":"Point","coordinates":[75.892361,10.962825]}},{"type":"Feature","properties":{"id":"osm-w1290232835","osm_id":1290232835,"name":"Unnamed Bridge","named":false,"road":"","structure":"yes","layer":"1","local_body":"Thanaloor","local_body_id":"tanalur","ward_no":3,"ward_name":"Puthantheru","notes":"","source":"OpenStreetMap (Overpass API) — seed only, incomplete","license":"ODbL 1.0","source_date":"2026-09-09","verified":false},"geometry":{"type":"Point","coordinates":[75.89264,10.962614]}}]}