{"type":"FeatureCollection","features":[{"type":"Feature","geometry":{"type":"Polygon","coordinates":[[[75.87908896721228,10.941484917896357],[75.8769351264,10.9410386246],[75.8772395542,10.9400587901],[75.8778105322,10.9375153309],[75.8786688233,10.9340794537],[75.879198651,10.9314871108],[75.879533688,10.9302896047],[75.8804221249,10.9267091094],[75.8808318756,10.9248037136],[75.8811939455,10.9235326538],[75.8811190757,10.9235230444],[75.8814935122,10.9214171268],[75.8823009582,10.9179711993],[75.8832988112,10.9128571584],[75.884328196,10.9130873526],[75.8847607844,10.9129870205],[75.8854548129,10.913121083],[75.8862110495,10.9131028424],[75.8867584765,10.9129382994],[75.8872626229,10.9125885682],[75.8881433317,10.9127622325],[75.8883986634,10.912650389],[75.8885413033,10.9128929155],[75.8895311078,10.9130799239],[75.8896294756,10.912678347],[75.8900618017,10.9121883637],[75.8907768714,10.9095672185],[75.891121196,10.9090797266],[75.8914859732,10.9080091574],[75.8918275131,10.9068054582],[75.8921522476,10.9059181499],[75.8937128179,10.9060639877],[75.8937851602,10.9055241444],[75.8942307169,10.9055323374],[75.8945305042,10.9058566573],[75.8951011959,10.9059715552],[75.8951215174,10.9058186275],[75.8958164631,10.9057814751],[75.8958774923,10.9054757935],[75.8964528512,10.9055179668],[75.8969678283,10.9057413757],[75.8972431477,10.9056755968],[75.8982601631,10.9058912788],[75.8981895475,10.9066296406],[75.8984320818,10.9067364694],[75.899106329,10.9067011685],[75.8990206514,10.9071231038],[75.8995054482,10.9072234344],[75.8993176447,10.9080929761],[75.8993283082,10.9086070704],[75.8992073283,10.9089342755],[75.9009913432,10.9091633507],[75.9010293226,10.9096062135],[75.9009051369,10.9100218031],[75.9007466851,10.9113940598],[75.9006576336,10.9116656098],[75.9012162901,10.9117626247],[75.9010557315,10.9122214699],[75.9016081116,10.9123109804],[75.9015291564,10.9131507624],[75.9041452983,10.913580707],[75.9045708189,10.9135815084],[75.9047992883,10.9137176312],[75.9058557264,10.9140098069],[75.9057107989,10.9146020462],[75.9049393046,10.9154788479],[75.9047109257,10.915908553],[75.9045301086,10.9165726687],[75.9042489486,10.9169193658],[75.9042564226,10.9173383946],[75.9046950934,10.9177780051],[75.9048724728,10.9181165241],[75.9048157601,10.9187138171],[75.9048813294,10.9189335439],[75.9055432142,10.9189709818],[75.9061471896,10.9196519457],[75.90624688,10.91997361],[75.9065860354,10.9203529638],[75.9061511331,10.9220147145],[75.906027933,10.9230702122],[75.9058669405,10.9234987413],[75.905662039,10.9242999158],[75.9062574301,10.9247568967],[75.9065193605,10.9250377497],[75.9066071814,10.9254751485],[75.9067979895,10.9259229531],[75.9070867305,10.9269708401],[75.9070391454,10.9270949157],[75.9086533836,10.9271831737],[75.9087393142,10.9273272689],[75.9088507137,10.9280687076],[75.9087919074,10.9287917381],[75.9079783543,10.9287361828],[75.9074384784,10.9286289085],[75.90721792465608,10.929859683233884],[75.9074132834,10.929922965],[75.9086402793,10.9298854343],[75.9085600596,10.9306559355],[75.9088829443,10.9308693133],[75.9088402504,10.9313904238],[75.91056603,10.9318736674],[75.9112665262,10.9321812784],[75.9112583921,10.9330857943],[75.9114217664,10.9331727869],[75.9115953579,10.9336150906],[75.9118883703,10.9337576717],[75.9126373134,10.9339174624],[75.9123681045,10.9358929432],[75.9116630539,10.9359479323],[75.9118515465,10.9367747297],[75.9122122015,10.936616687],[75.9135071229,10.9367227768],[75.9135365163,10.93727355],[75.9133117671,10.9372585683],[75.913183781,10.937815038],[75.9134870547,10.9378090128],[75.9139435242,10.9380202773],[75.9138295004,10.9392971508],[75.9130434668,10.9392714985],[75.9130529697,10.9395971868],[75.9142143996,10.9397682533],[75.9145399125,10.9397372356],[75.9145945132,10.940098514],[75.9153605838,10.9402448843],[75.9154523079,10.939881351],[75.9163272272,10.9406009532],[75.9170038237,10.9406521594],[75.9175337775,10.9407921466],[75.9184958981,10.9408632768],[75.9189238146,10.9411145645],[75.9196677392,10.9410824688],[75.9197926657,10.9404477754],[75.9200720998,10.9403593226],[75.9215704598,10.940599653],[75.9230351222,10.9411752725],[75.9233563992,10.9419637861],[75.9234953182,10.9428039104],[75.9251013527,10.9454141203],[75.9261604176,10.94440198],[75.9263518901,10.9437108379],[75.9268056416,10.9427733056],[75.9275290829,10.9421053845],[75.9275118725,10.9419690065],[75.9278129069,10.9413800882],[75.9279042103,10.9408897924],[75.9283023966,10.939966068],[75.9283307014,10.9396593531],[75.9285401241,10.9389568288],[75.9291099409,10.9387566133],[75.9293203155,10.9382415839],[75.9291318884,10.9380011164],[75.9298049572,10.937302598],[75.9295605592,10.9367720039],[75.9295101535,10.9364116625],[75.930297657,10.9366347457],[75.931103174,10.9365675807],[75.9316584458,10.9368843788],[75.931940975,10.9368518778],[75.9321695238,10.9365201258],[75.9316633603,10.9361567964],[75.9315877727,10.9358457553],[75.9319058164,10.9353043608],[75.9320429314,10.9352393195],[75.9324943499,10.9354328459],[75.9326759752,10.9352366455],[75.9327529278,10.9345874343],[75.9326852969,10.9335208432],[75.9330727218,10.9331718077],[75.9339447815,10.9330262635],[75.9343260159,10.9328071783],[75.9347284841,10.9323238466],[75.9353609171,10.9319075731],[75.9363005299,10.9317319021],[75.9368681026,10.9312797437],[75.9374544939,10.9299327208],[75.9374846854,10.9296645933],[75.9372472268,10.9295131943],[75.9368757968,10.9296399867],[75.9364927681,10.9294959572],[75.9364401981,10.9288830065],[75.9366498432,10.9286889259],[75.9370892359,10.9287251599],[75.9372791334,10.9285224232],[75.9372153285,10.9280539618],[75.9369982024,10.9274890451],[75.93690654,10.92699699],[75.9369692428,10.9265486567],[75.9371686317,10.9262307888],[75.9377105141,10.9257443641],[75.938259263,10.925092606],[75.9383618726,10.9247477652],[75.9382500076,10.9244305302],[75.9379129413,10.9239383791],[75.9377381928,10.92338931],[75.9376610655,10.9227812654],[75.9376908258,10.9224128335],[75.9378921029,10.9218072803],[75.9381107199,10.9214412775],[75.9381203452,10.9209721762],[75.9380127351,10.9206483223],[75.9381103346,10.9201866576],[75.9382864578,10.919858694],[75.9385934239,10.9195407686],[75.9388880714,10.9194148419],[75.9394714148,10.9193986388],[75.939888594,10.9192863706],[75.9405367444,10.919017311],[75.941343507,10.9188472044],[75.9423107759,10.9187878983],[75.942920928,10.9186923622],[75.9432873811,10.9184900631],[75.9435039526,10.9181785828],[75.9436825695,10.9176932153],[75.9439845387,10.9173053036],[75.9443676939,10.9165846667],[75.9450110493,10.9157923651],[75.9454206333,10.9151307023],[75.9455539104,10.9147557966],[75.9454471593,10.9142404019],[75.9460072729,10.9137543414],[75.9471127658,10.9131767676],[75.9479572097,10.912628604],[75.9488422707,10.912531004],[75.9492528157,10.9125436796],[75.9494685532,10.912879841],[75.9500790707,10.912966641],[75.950456976,10.913303737],[75.9506947874,10.9131990404],[75.9508691119,10.9128544022],[75.9511178617,10.9126388671],[75.9513978996,10.9120390487],[75.9518596432,10.9114743727],[75.9522716715,10.9112268279],[75.9525420204,10.9108611769],[75.9534260155,10.9102385192],[75.9537179497,10.9094525503],[75.9540006729,10.9094494757],[75.9539675085,10.9098509834],[75.95437699,10.9099577181],[75.9545734941,10.9102260046],[75.9554869839,10.9112558903],[75.956000359,10.9115523011],[75.9559747126,10.9118640526],[75.9561330067,10.9123073838],[75.9558322165,10.9130822479],[75.9567213433,10.9131080681],[75.9574746213,10.9129978396],[75.9576892639,10.9136579947],[75.9583643631,10.913920015],[75.9593768386,10.9141891528],[75.9598164515,10.9145504862],[75.9601634622,10.9146612337],[75.9617914024,10.9157422647],[75.9624415184,10.9160131744],[75.9624666028,10.9163220724],[75.9630213925,10.9166118482],[75.9635384869,10.9170135],[75.9641644303,10.917169235],[75.9647864132,10.9175501366],[75.9654450103,10.917741044],[75.9661482873,10.9180321202],[75.9666368346,10.9181221564],[75.9669083183,10.9183278091],[75.9675760129,10.9191842651],[75.9677865429,10.9191655288],[75.9694043133,10.9194429016],[75.9696721178,10.9194371656],[75.9691310042,10.9203615042],[75.9687556781,10.9208495966],[75.9678968581,10.9208599938],[75.9675966624,10.9212111966],[75.9673861066,10.9212686231],[75.9666565769,10.9211247036],[75.9663265594,10.9208459597],[75.9660106311,10.9212016117],[75.9661047524,10.9221345933],[75.9662270599,10.9226802991],[75.9661234091,10.9230920815],[75.9661605899,10.92358807],[75.9659801175,10.9240266004],[75.9659753477,10.924267818],[75.9657798643,10.9249258021],[75.9653022591,10.9249206875],[75.9647959269,10.9256954639],[75.9637243868,10.9276242937],[75.9632457261,10.9280658433],[75.9613678954,10.9283049918],[75.960412175,10.9288846446],[75.9600776508,10.9294845393],[75.9604429734,10.930107638],[75.9608548196,10.9310054559],[75.9604654406,10.9315306579],[75.9600850951,10.9318903659],[75.9598730936,10.9323806851],[75.95985266,10.933069655],[75.9596671126,10.9333259496],[75.9585483133,10.9335623705],[75.9578931702,10.9336597583],[75.9575749944,10.9337896938],[75.957352628,10.9342550183],[75.9572870002,10.9350858952],[75.9576409633,10.9357890243],[75.9579728884,10.9360943486],[75.9586392213,10.936246391],[75.9590820294,10.9364415392],[75.9592079601,10.937130604],[75.9595188943,10.9381256314],[75.9596250208,10.9389510231],[75.9598648383,10.939548898],[75.9601669896,10.9396841574],[75.9605644498,10.9397059542],[75.9624690335,10.9405552241],[75.9625831184,10.941005503],[75.9627582148,10.9426714764],[75.962880299,10.9428399318],[75.9629328315,10.9432793394],[75.9632986113,10.9432203156],[75.9632081836,10.9435535621],[75.9633039021,10.9438397079],[75.9629120419,10.9446815734],[75.9627167299,10.9452511429],[75.9625348089,10.9453239921],[75.962107983,10.9459838992],[75.9622106583,10.9461657365],[75.9621174002,10.9467480534],[75.9621501768,10.947256359],[75.9622698337,10.9477301011],[75.96158,10.947755],[75.96138343380039,10.947956939486604],[75.9621216667,10.9481616667],[75.9622133333,10.9484683333],[75.9619966667,10.9489616667],[75.962045,10.9496566667],[75.9621834476,10.9503069491],[75.961904461,10.9503436618],[75.9619779969,10.9510438032],[75.9622174716,10.952289064],[75.962429077,10.9523077803],[75.9625667158,10.9529489539],[75.9629666667,10.9541033333],[75.963045,10.95461],[75.9630308785,10.955312464],[75.9631536417,10.9559003341],[75.9630965139,10.9564258908],[75.9629031805,10.9575126225],[75.9627715372,10.9579691626],[75.9628683333,10.958235],[75.9633133333,10.95889],[75.9635448748,10.9596468648],[75.9635149267,10.9605785378],[75.9634409196,10.9612660018],[75.9634836274,10.9618539116],[75.9633054571,10.9624129919],[75.9630407969,10.9628341713],[75.9629554736,10.9632919124],[75.9626923276,10.9638022434],[75.9614017446,10.9640689376],[75.9611639004,10.9642510797],[75.9602900951,10.9645259287],[75.9603530063,10.9656269234],[75.9602694068,10.9662413918],[75.9604703417,10.9662919915],[75.9604445634,10.9667866866],[75.960160419,10.9666559119],[75.9599714232,10.9668806267],[75.9602047784,10.9673586727],[75.9600078646,10.9679888993],[75.9595345884,10.9689116148],[75.9593780993,10.969529056],[75.9590735839,10.9697008141],[75.9590114407,10.9704266377],[75.9590586682,10.9712545162],[75.9585700184,10.9720938552],[75.9585233333,10.9724283333],[75.958680382,10.9732186231],[75.9584580759,10.9742226132],[75.9584511862,10.9748805979],[75.9583836737,10.9755329197],[75.9585784964,10.9764174594],[75.9585651094,10.9770259428],[75.9583917376,10.9774554497],[75.9583532038,10.9784398898],[75.9576193541,10.9781457624],[75.957149179,10.9786574353],[75.9570051921,10.979010086],[75.9554505282,10.9793338018],[75.9542768328,10.979660625],[75.9536036393,10.9794653909],[75.9535061709,10.9784412611],[75.9527786707,10.9782367958],[75.9526199783,10.9780295489],[75.9521866992,10.9779191245],[75.9522737893,10.9773744552],[75.9514558275,10.977471255],[75.9510050211,10.9767967075],[75.9512728156,10.9762066423],[75.9511304652,10.9756322097],[75.9504251008,10.9760387912],[75.9501911154,10.9765234636],[75.9499294561,10.9767228315],[75.9492010338,10.9771184931],[75.9489802859,10.9775971789],[75.9487824704,10.9777741139],[75.9483669562,10.9787395514],[75.9484411704,10.9792806126],[75.9482610995,10.979639442],[75.9474898346,10.9797208987],[75.9469139817,10.9793097767],[75.94652249540056,10.979152705828112],[75.9464206829,10.9795558596],[75.9465191899,10.9813793204],[75.9464037649,10.981821799],[75.9464493582,10.9822360197],[75.946163268,10.9831856419],[75.9461188589,10.9841491745],[75.9459090819,10.9844919502],[75.9460280651,10.9848806711],[75.9459076616,10.9856669859],[75.9459960319,10.9859684804],[75.9460009112,10.9867260203],[75.9459514486,10.9874274207],[75.9459388144,10.988413519],[75.9466190536,10.9885181187],[75.946814613,10.9887245438],[75.947287161,10.9899391887],[75.9472093277,10.9908762295],[75.9472674348,10.9914780803],[75.9475068497,10.9917249754],[75.9472929879,10.9919655451],[75.9457347361,10.9921365099],[75.9440599858,10.9921071562],[75.9434503095,10.9922912169],[75.9428578611,10.9922523773],[75.942617129,10.9920194075],[75.9422909451,10.9918747175],[75.9416713166,10.9913450659],[75.941551844,10.9907417309],[75.9412247621,10.9902051811],[75.9407630299,10.9897546779],[75.9406494997,10.9893364051],[75.9400250265,10.9890210418],[75.9389684463,10.989278047],[75.9386296349,10.9892856031],[75.9365246329,10.9889402103],[75.9356926327,10.9890212089],[75.9347817713,10.9884548667],[75.9339901603,10.9890768445],[75.9336106155,10.9895513885],[75.9331952194,10.9898967103],[75.9322769374,10.9910885259],[75.9320130267,10.9913849196],[75.9313910496,10.9917871832],[75.9301747347,10.9929917741],[75.9300809815,10.993380771],[75.9297738541,10.9938498013],[75.9295094467,10.9944734144],[75.9292454562,10.9947926557],[75.9287352351,10.9952461373],[75.928773172,10.9955554507],[75.9286417516,10.9958348496],[75.9279633145,10.995994227],[75.9273853132,10.9963173618],[75.9264033817,10.9966723634],[75.9250184156,10.9969683637],[75.9235593197,10.9967952639],[75.9232909472,10.9965879406],[75.9227740545,10.9963974158],[75.9218534755,10.9963108297],[75.9211000497,10.9963324716],[75.9208299677,10.996286517],[75.9196434766,10.9962573589],[75.9197574043,10.995820681],[75.9196625291,10.9952115842],[75.9193375992,10.9944480072],[75.9191422772,10.9941334925],[75.9190208,10.9931891638],[75.9190827626,10.9920915369],[75.917852158,10.992472369],[75.9178321895,10.9922554627],[75.9174858745,10.9922842509],[75.9174720285,10.9917292667],[75.9173018988,10.991720538],[75.9172901386,10.9905913012],[75.9173326742,10.9901559117],[75.9161070672,10.9900006354],[75.9127773683,10.9889113161],[75.9124549352,10.988730991],[75.9122575606,10.9883022959],[75.9113722033,10.9869570688],[75.9112597184,10.9866955673],[75.911254279,10.9862808099],[75.9107438694,10.9853669726],[75.9105691116,10.9847609065],[75.910275695,10.9840066135],[75.9098674312,10.9835633168],[75.9093732294,10.9832173862],[75.909181572,10.9829612218],[75.9085604956,10.9827528482],[75.9081043277,10.9827480861],[75.9066913162,10.9828350534],[75.9060190173,10.9827794511],[75.9048930821,10.982400108],[75.9048311064,10.9828599123],[75.9048730211,10.9834425463],[75.9040398494,10.9832565191],[75.9035735166,10.9832349231],[75.9035258161,10.9835476024],[75.9026482826,10.9834814272],[75.9023738174,10.9835595399],[75.901959576,10.9842312584],[75.9018435529,10.9847024952],[75.9012267311,10.984702699],[75.9008445444,10.984614799],[75.9002435144,10.9841896121],[75.9001826106,10.9840150539],[75.8996006691,10.9838278968],[75.8988352427,10.983710599],[75.8987349711,10.9835308771],[75.8981334749,10.9833743726],[75.8981473246,10.9832452261],[75.8974764053,10.9831902757],[75.8973708794,10.9836299086],[75.8970793362,10.9836180472],[75.8968942548,10.9840964511],[75.8967489962,10.9849667371],[75.8966106469,10.9854099438],[75.896225781,10.9856323225],[75.8960457869,10.9860017001],[75.8961812216,10.9860877513],[75.8971781894,10.9862413832],[75.8970713983,10.9880639709],[75.8975810316,10.9881656115],[75.8975429516,10.9883404752],[75.8980390383,10.9885846183],[75.8979889328,10.98971215],[75.8984000449,10.9897036253],[75.8983208292,10.9905012337],[75.8976572385,10.9906571251],[75.8979607543,10.9917625792],[75.8979544818,10.9935383329],[75.8979914346,10.9938738662],[75.8978487938,10.9945086603],[75.8974056902,10.9952842695],[75.8963492395,10.9954687113],[75.8962200741,10.996338167],[75.8958740125,10.9975167096],[75.8953638953,10.99791247],[75.8950488891,10.9983381833],[75.8946356043,10.9986337748],[75.8941875333,10.9987727699],[75.8942208122,10.9994097936],[75.8941597075,10.999729182],[75.8941049201,11.000820204],[75.8946209018,11.001056935],[75.8944480735,11.0020770567],[75.8940018527,11.00226293],[75.8931336361,11.0023146707],[75.8931050414,11.002068375],[75.8927308238,11.0019491655],[75.8926190066,11.002130771],[75.8924804063,11.0028609691],[75.8924798585,11.0035256924],[75.892341035,11.0042529368],[75.8920303691,11.0043897095],[75.8907443872,11.0054678764],[75.8905235497,11.0060792639],[75.8909187515,11.0066843007],[75.8913960861,11.0071041615],[75.8916602514,11.0076143905],[75.8917021009,11.008051475],[75.8914869613,11.0087487549],[75.8906998842,11.0096763935],[75.8904036833,11.0101433588],[75.8904000277,11.0103346167],[75.8898480732,11.0105702635],[75.8900457824,11.0108136125],[75.8902293401,11.0113057268],[75.8900613278,11.0114332938],[75.8903977232,11.0123216244],[75.8891983692,11.0130149469],[75.8886448429,11.0134714824],[75.8880459778,11.0141186499],[75.8881162853,11.0151664057],[75.8882842651,11.0160130555],[75.8888845913,11.0167494594],[75.8896024275,11.0181481553],[75.8898335726,11.0186930379],[75.8902615135,11.0205353737],[75.8904300241,11.0217548046],[75.8903990261,11.022037044],[75.8898189901,11.0220818365],[75.8882715773,11.0216767544],[75.8854645535,11.0208157027],[75.8837676556,11.0203447174],[75.8790333507,11.0188931819],[75.8756726903,11.018196683],[75.8730308155,11.018071398],[75.8715239074,11.017974977],[75.8701963639,11.0178030928],[75.8682565181,11.0178133664],[75.8662062123,11.0177187865],[75.8642371503,11.0174394849],[75.8639043354,11.018799146],[75.8636141559,11.0208873821],[75.8635027729,11.0213054265],[75.8633386425,11.0214368771],[75.8625704365,11.0214236408],[75.8615004444,11.02115415],[75.8612195145,11.0209415491],[75.8604346209,11.0199418926],[75.8600524712,11.019255372],[75.8568034861,11.0195195431],[75.8570089364,11.0189276304],[75.8576382046,11.0166595022],[75.8582428177,11.0140764846],[75.8599878275,11.0069523936],[75.8602863128,11.006087194],[75.8606901354,11.0047830869],[75.8616561901,11.0013455097],[75.8629892774,10.9960043173],[75.8638492796,10.9925136048],[75.8642909674,10.9907823261],[75.8654146162,10.9867335277],[75.866406814,10.9828006982],[75.8665347912,10.9825855873],[75.8631691461,10.9814017309],[75.8624772029,10.9811329885],[75.8611146993,10.9804783365],[75.8604153664,10.9803413972],[75.8594331219,10.9805150598],[75.8591208294,10.9804736522],[75.8592258492,10.9799289092],[75.859473823,10.9791637924],[75.8598481582,10.9783900546],[75.8601426746,10.9775981052],[75.8604814406,10.977043776],[75.8609039346,10.9765334766],[75.8613842155,10.9760730135],[75.8620212443,10.9756768047],[75.8624535056,10.9755567842],[75.8632105636,10.9754767028],[75.8638889047,10.9756005985],[75.8658626715,10.9762548754],[75.8672834135,10.976693159],[75.8680710579,10.9750044054],[75.8685982697,10.9736530766],[75.8690368043,10.972312945],[75.8691218278,10.9718695242],[75.8701179746,10.9684426675],[75.8709361663,10.9652309325],[75.8727473088,10.958307284],[75.8744154903,10.9517324696],[75.8756401934,10.9464777413],[75.8768175644,10.9410559465],[75.87908896721228,10.941484917896357]]]},"properties":{"id":"tanur-ac-44","name":"Tanur","name_ml":"തനൂർ","number":44,"type":"assembly_constituency","district":"Malappuram","taluk":"Tirur","parliamentary_constituency":"Malappuram","local_body_count":6,"ward_count":147,"area_km2":82.5,"local_bodies":["Tanur","Ozhur","Ponmundam","Thanaloor","Niramaruthoor","Cheriyamundam"],"source":"Derived: union of the six component Local Self Government Institutions (themselves dissolved from 2024 Delimitation Commission ward polygons). Composition per ECI Delimitation of Constituencies Order 2008 (via Wikipedia; pending cross-check against the original notification).","confidence":"medium-high","acquired":"2026-09-11"}}]}