{"type":"FeatureCollection","features":[{"type":"Feature","geometry":{"type":"LineString","coordinates":[[75.891583,10.963115],[75.891416,10.963372],[75.887684,10.96892],[75.885082,10.972894],[75.884907,10.973162],[75.884114,10.974358],[75.883345,10.975513],[75.882346,10.977013],[75.881349,10.978547],[75.880771,10.97951],[75.880246,10.980485],[75.880031,10.980894],[75.879396,10.982282],[75.878802,10.983734],[75.878584,10.98441],[75.878368,10.9851],[75.877937,10.986463],[75.877474,10.988533],[75.876876,10.991303],[75.8765,10.993183],[75.876341,10.993925],[75.876166,10.994682],[75.875186,10.999316],[75.874978,11.000264],[75.874776,11.001235],[75.874695,11.001607],[75.874378,11.00306],[75.874005,11.004924],[75.873481,11.007331],[75.873228,11.008544],[75.872975,11.009717],[75.872589,11.011504],[75.872431,11.012301],[75.872342,11.012864],[75.872304,11.013103],[75.872005,11.015199],[75.871812,11.016264],[75.871569,11.017311]]},"properties":{"id":"osm-w45099755","osm_id":45099755,"name":"Railway line","usage":"main","electrified":"contact_line","gauge":"1676","source":"OpenStreetMap (Overpass API)","license":"ODbL 1.0","source_date":"2026-09-09","kind":"line"}},{"type":"Feature","geometry":{"type":"LineString","coordinates":[[75.871569,11.017311],[75.871409,11.01796]]},"properties":{"id":"osm-w45099759","osm_id":45099759,"name":"Railway line","usage":"main","electrified":"contact_line","gauge":"1676","source":"OpenStreetMap (Overpass API)","license":"ODbL 1.0","source_date":"2026-09-09","kind":"line"}},{"type":"Feature","geometry":{"type":"LineString","coordinates":[[75.871507,11.017973],[75.871665,11.017322]]},"properties":{"id":"osm-w584906454","osm_id":584906454,"name":"Railway line","usage":"","electrified":"","gauge":"1676","source":"OpenStreetMap (Overpass API)","license":"ODbL 1.0","source_date":"2026-09-09","kind":"line"}},{"type":"Feature","geometry":{"type":"LineString","coordinates":[[75.880103,10.980858],[75.880337,10.980413],[75.880701,10.979742],[75.881031,10.979163],[75.881854,10.977832],[75.882157,10.977381],[75.882675,10.976611],[75.883233,10.975775],[75.88373,10.975013],[75.8842,10.97432],[75.884663,10.97362],[75.884953,10.973198],[75.885461,10.972399]]},"properties":{"id":"osm-w635865356","osm_id":635865356,"name":"Railway line","usage":"","electrified":"","gauge":"","source":"OpenStreetMap (Overpass API)","license":"ODbL 1.0","source_date":"2026-09-09","kind":"line"}},{"type":"Feature","geometry":{"type":"LineString","coordinates":[[75.884953,10.973198],[75.885464,10.972497]]},"properties":{"id":"osm-w635865359","osm_id":635865359,"name":"Railway line","usage":"","electrified":"","gauge":"","source":"OpenStreetMap (Overpass API)","license":"ODbL 1.0","source_date":"2026-09-09","kind":"line"}},{"type":"Feature","geometry":{"type":"LineString","coordinates":[[75.885082,10.972894],[75.884663,10.97362]]},"properties":{"id":"osm-w635865360","osm_id":635865360,"name":"Railway line","usage":"","electrified":"","gauge":"","source":"OpenStreetMap (Overpass API)","license":"ODbL 1.0","source_date":"2026-09-09","kind":"line"}},{"type":"Feature","geometry":{"type":"LineString","coordinates":[[75.880246,10.980485],[75.880701,10.979742]]},"properties":{"id":"osm-w635865362","osm_id":635865362,"name":"Railway line","usage":"","electrified":"","gauge":"","source":"OpenStreetMap (Overpass API)","license":"ODbL 1.0","source_date":"2026-09-09","kind":"line"}},{"type":"Feature","geometry":{"type":"LineString","coordinates":[[75.879937,10.981357],[75.880337,10.980413]]},"properties":{"id":"osm-w635865363","osm_id":635865363,"name":"Railway line","usage":"","electrified":"","gauge":"","source":"OpenStreetMap (Overpass API)","license":"ODbL 1.0","source_date":"2026-09-09","kind":"line"}},{"type":"Feature","geometry":{"type":"LineString","coordinates":[[75.891757,10.962981],[75.892402,10.96202],[75.892843,10.961363],[75.893503,10.960377],[75.895046,10.958076],[75.896355,10.956129],[75.897741,10.95405],[75.899059,10.952088],[75.89997,10.950723],[75.89997,10.950719],[75.900498,10.949931],[75.901396,10.948575],[75.901397,10.948575],[75.902055,10.947579],[75.903031,10.946114],[75.903059,10.946071],[75.903067,10.946058],[75.904021,10.944628],[75.904976,10.943187],[75.906088,10.941528],[75.906908,10.940323],[75.907748,10.939037],[75.908757,10.937564],[75.909674,10.936184],[75.910556,10.934872],[75.911415,10.933577],[75.91152,10.933423]]},"properties":{"id":"osm-w753323834","osm_id":753323834,"name":"Railway line","usage":"","electrified":"","gauge":"1676","source":"OpenStreetMap (Overpass API)","license":"ODbL 1.0","source_date":"2026-09-09","kind":"line"}},{"type":"Feature","geometry":{"type":"LineString","coordinates":[[75.871665,11.017322],[75.871846,11.016539],[75.871913,11.016202],[75.872072,11.015293],[75.872244,11.014005],[75.872418,11.012872],[75.872505,11.012267],[75.872729,11.011144],[75.872992,11.009916],[75.873354,11.008228],[75.873817,11.006103],[75.874311,11.003698],[75.874682,11.002012],[75.874769,11.001607],[75.875087,11.000134],[75.875455,10.998442],[75.87581,10.996681],[75.876154,10.99508],[75.876525,10.993417],[75.876836,10.991844],[75.877188,10.99017],[75.877268,10.989773],[75.877544,10.988511],[75.877759,10.987536],[75.878081,10.986287],[75.878433,10.985137],[75.878599,10.984625],[75.878838,10.983899],[75.879032,10.983416],[75.879332,10.982689],[75.879512,10.982239],[75.879822,10.981588],[75.879937,10.981357],[75.880133,10.980965],[75.880218,10.980786],[75.880614,10.980029],[75.881169,10.979135],[75.881417,10.978737],[75.882141,10.97765],[75.882493,10.977117],[75.882882,10.976524],[75.883189,10.976061],[75.883449,10.975657],[75.883897,10.974905],[75.884213,10.974378],[75.885001,10.973195],[75.885464,10.972497],[75.886056,10.971606],[75.887215,10.969767],[75.888055,10.968511],[75.889251,10.966691],[75.890413,10.964961],[75.891457,10.963426],[75.891514,10.963342],[75.891672,10.963107]]},"properties":{"id":"osm-w777442347","osm_id":777442347,"name":"Railway line","usage":"","electrified":"","gauge":"1676","source":"OpenStreetMap (Overpass API)","license":"ODbL 1.0","source_date":"2026-09-09","kind":"line"}},{"type":"Feature","geometry":{"type":"LineString","coordinates":[[75.891672,10.963107],[75.891757,10.962981]]},"properties":{"id":"osm-w777442348","osm_id":777442348,"name":"Railway line","usage":"","electrified":"","gauge":"1676","source":"OpenStreetMap (Overpass API)","license":"ODbL 1.0","source_date":"2026-09-09","kind":"line"}},{"type":"Feature","geometry":{"type":"LineString","coordinates":[[75.911488,10.933341],[75.907684,10.939001],[75.903004,10.946013],[75.898915,10.95214],[75.891667,10.96299]]},"properties":{"id":"osm-w777442349","osm_id":777442349,"name":"Railway line","usage":"main","electrified":"contact_line","gauge":"1676","source":"OpenStreetMap (Overpass API)","license":"ODbL 1.0","source_date":"2026-09-09","kind":"line"}},{"type":"Feature","geometry":{"type":"LineString","coordinates":[[75.891667,10.96299],[75.891583,10.963115]]},"properties":{"id":"osm-w777442350","osm_id":777442350,"name":"Railway line","usage":"main","electrified":"contact_line","gauge":"1676","source":"OpenStreetMap (Overpass API)","license":"ODbL 1.0","source_date":"2026-09-09","kind":"line"}},{"type":"Feature","properties":{"id":"osm-n5997026244","osm_id":5997026244,"name":"Tanur","name_ml":"താനൂര്‍","railway":"station","station_code":"TA","network":"IR","operator":"SR","source":"OpenStreetMap (Overpass API)","license":"ODbL 1.0","source_date":"2026-09-09","verified":false,"kind":"station"},"geometry":{"type":"Point","coordinates":[75.881513,10.978073]}}]}